[{"OBJECT_NAME":"LYNK TOWER 4","OBJECT_ID":"2023-001AB","EPOCH":"2026-03-09T16:15:30.644928","MEAN_MOTION":15.31819885,"ECCENTRICITY":0.00103213,"INCLINATION":97.3324,"RA_OF_ASC_NODE":128.594,"ARG_OF_PERICENTER":112.3386,"MEAN_ANOMALY":247.895,"EPHEMERIS_TYPE":0,"CLASSIFICATION_TYPE":"U","NORAD_CAT_ID":55034,"ELEMENT_SET_NO":999,"REV_AT_EPOCH":17658,"BSTAR":0.00030013829,"MEAN_MOTION_DOT":9.16e-5,"MEAN_MOTION_DDOT":0},{"OBJECT_NAME":"STARLINK-34808","OBJECT_ID":"2025-216M","EPOCH":"2026-03-09T23:29:47.050656","MEAN_MOTION":15.30216272,"ECCENTRICITY":0.00016809,"INCLINATION":53.1615,"RA_OF_ASC_NODE":331.1376,"ARG_OF_PERICENTER":133.4265,"MEAN_ANOMALY":226.6876,"EPHEMERIS_TYPE":0,"CLASSIFICATION_TYPE":"U","NORAD_CAT_ID":65745,"ELEMENT_SET_NO":999,"REV_AT_EPOCH":2656,"BSTAR":0.00077027856,"MEAN_MOTION_DOT":0.00022535,"MEAN_MOTION_DDOT":0}]
